H1 CPF  1  DLR 2021 09 08 10  7512 technosat            
H2  1704205 6203    42829 2021 09 08 00 00 00 2021 09 15 00 00 00    60 1 1  0 0 0
H9
10 0 59470      0.000000  0      -1248637.900        123103.862      -6861872.335
10 0 59470     60.000000  0      -1518597.136        485002.733      -6791603.870
10 0 59470    120.000000  0      -1779033.486        847192.905      -6692708.852
10 0 59470    180.000000  0      -2028862.129       1208070.972      -6565605.623
10 0 59470    240.000000  0      -2267056.344       1566029.683      -6410829.973
10 0 59470    300.000000  0      -2492651.698       1919464.936      -6229033.073
10 0 59470    360.000000  0      -2704749.947       2266782.912      -6020978.947
10 0 59470    420.000000  0      -2902522.578       2606407.205      -5787541.456
10 0 59470    480.000000  0      -3085214.053       2936785.933      -5529700.905
10 0 59470    540.000000  0      -3252144.780       3256398.837      -5248540.180
10 0 59470    600.000000  0      -3402713.708       3563764.303      -4945240.420
10 0 59470    660.000000  0      -3536400.564       3857446.292      -4621076.260
10 0 59470    720.000000  0      -3652767.668       4136061.113      -4277410.645
10 0 59470    780.000000  0      -3751461.365       4398284.011      -3915689.257
10 0 59470    840.000000  0      -3832213.016       4642855.523      -3537434.588
10 0 59470    900.000000  0      -3894839.633       4868587.620      -3144239.737
10 0 59470    960.000000  0      -3939244.173       5074369.607      -2737761.822
10 0 59470   1020.000000  0      -3965415.405       5259173.689      -2319715.066
10 0 59470   1080.000000  0      -3973427.352       5422060.238      -1891863.632
10 0 59470   1140.000000  0      -3963438.345       5562182.726      -1456014.171
10 0 59470   1200.000000  0      -3935689.639       5678792.247      -1014008.078
10 0 59470   1260.000000  0      -3890503.555       5771241.492       -567713.532
10 0 59470   1320.000000  0      -3828281.295       5838988.214       -119017.586
10 0 59470   1380.000000  0      -3749500.483       5881598.394        330181.946
10 0 59470   1440.000000  0      -3654712.201       5898748.791        777984.760
10 0 59470   1500.000000  0      -3544537.689       5890229.018       1222496.273
10 0 59470   1560.000000  0      -3419664.693       5855943.070       1661835.881
10 0 59470   1620.000000  0      -3280843.467       5795910.228       2094145.137
10 0 59470   1680.000000  0      -3128882.494       5710265.367       2517595.746
10 0 59470   1740.000000  0      -2964643.972       5599258.742       2930397.380
10 0 59470   1800.000000  0      -2789039.103       5463255.248       3330805.268
10 0 59470   1860.000000  0      -2603023.178       5302733.195       3717127.611
10 0 59470   1920.000000  0      -2407590.466       5118282.495       4087732.748
10 0 59470   1980.000000  0      -2203768.997       4910602.345       4441055.983
10 0 59470   2040.000000  0      -1992615.250       4680498.439       4775606.133
10 0 59470   2100.000000  0      -1775208.737       4428879.702       5089971.779
10 0 59470   2160.000000  0      -1552646.494       4156754.484       5382827.103
10 0 59470   2220.000000  0      -1326037.594       3865226.348       5652937.279
10 0 59470   2280.000000  0      -1096497.710       3555489.445       5899163.504
10 0 59470   2340.000000  0       -865143.678       3228823.494       6120467.624
10 0 59470   2400.000000  0       -633088.122       2886588.367       6315916.298
10 0 59470   2460.000000  0       -401434.208       2530218.388       6484684.693
10 0 59470   2520.000000  0       -171270.491       2161216.366       6626059.832
10 0 59470   2580.000000  0         56334.153       1781147.241       6739443.527
10 0 59470   2640.000000  0        280335.449       1391631.410       6824354.768
10 0 59470   2700.000000  0        499718.450        994337.884       6880431.612
10 0 59470   2760.000000  0        713502.074        590977.247       6907432.659
10 0 59470   2820.000000  0        920743.451        183294.425       6905238.121
10 0 59470   2880.000000  0       1120542.043       -226938.767       6873850.446
10 0 59470   2940.000000  0       1312043.555       -637931.281       6813394.466
10 0 59470   3000.000000  0       1494443.600      -1047880.612       6724116.976
10 0 59470   3060.000000  0       1666991.101      -1454980.573       6606385.885
10 0 59470   3120.000000  0       1828991.419      -1857429.240       6460688.984
10 0 59470   3180.000000  0       1979809.218      -2253436.960       6287632.144
10 0 59470   3240.000000  0       2118871.021      -2641234.326       6087937.044
10 0 59470   3300.000000  0       2245667.489      -3019080.180       5862438.446
10 0 59470   3360.000000  0       2359755.347      -3385269.542       5612080.921
10 0 59470   3420.000000  0       2460758.982      -3738141.408       5337915.136
10 0 59470   3480.000000  0       2548371.709      -4076086.450       5041093.721
10 0 59470   3540.000000  0       2622356.718      -4397554.575       4722866.700
10 0 59470   3600.000000  0       2682547.726      -4701062.340       4384576.412
10 0 59470   3660.000000  0       2728849.246      -4985200.065       4027651.940
10 0 59470   3720.000000  0       2761236.449      -5248638.661       3653603.186
10 0 59470   3780.000000  0       2779754.685      -5490136.204       3264014.580
10 0 59470   3840.000000  0       2784518.656      -5708544.151       2860538.343
10 0 59470   3900.000000  0       2775711.209      -5902813.098       2444887.366
10 0 59470   3960.000000  0       2753581.757      -6071998.078       2018827.812
10 0 59470   4020.000000  0       2718444.354      -6215263.332       1584171.457
10 0 59470   4080.000000  0       2670675.507      -6331886.693       1142767.890
10 0 59470   4140.000000  0       2610711.639      -6421263.444        696496.380
10 0 59470   4200.000000  0       2539046.255      -6482909.639        247257.630
10 0 59470   4260.000000  0       2456226.757      -6516464.815       -203034.715
10 0 59470   4320.000000  0       2362851.021      -6521694.028       -652462.620
10 0 59470   4380.000000  0       2259563.669      -6498489.244      -1099112.225
10 0 59470   4440.000000  0       2147052.075      -6446870.069      -1541082.298
10 0 59470   4500.000000  0       2026042.230      -6366983.906      -1976492.542
10 0 59470   4560.000000  0       1897294.506      -6259105.654      -2403491.944
10 0 59470   4620.000000  0       1761599.017      -6123636.475      -2820267.119
10 0 59470   4680.000000  0       1619771.000      -5961101.803      -3225050.045
10 0 59470   4740.000000  0       1472646.235      -5772149.053      -3616125.628
10 0 59470   4800.000000  0       1321076.341      -5557544.706      -3991839.094
10 0 59470   4860.000000  0       1165924.030      -5318170.790      -4350603.012
10 0 59470   4920.000000  0       1008058.359      -5055020.848      -4690903.939
10 0 59470   4980.000000  0        848350.028      -4769195.433      -5011308.684
10 0 59470   5040.000000  0        687666.726      -4461897.137      -5310470.201
10 0 59470   5100.000000  0        526868.558      -4134425.155      -5587133.073
10 0 59470   5160.000000  0        366803.575      -3788169.428      -5840138.523
10 0 59470   5220.000000  0        208303.437      -3424604.446      -6068428.974
10 0 59470   5280.000000  0         52179.231      -3045282.716      -6271052.154
10 0 59470   5340.000000  0       -100782.543      -2651827.919      -6447164.754
10 0 59470   5400.000000  0       -249823.818      -2245927.807      -6596035.604
10 0 59470   5460.000000  0       -394218.586      -1829326.865      -6717048.375
10 0 59470   5520.000000  0       -533276.310      -1403818.798      -6809703.851
10 0 59470   5580.000000  0       -666345.102       -971238.777      -6873621.767
10 0 59470   5640.000000  0       -792814.666       -533455.538      -6908542.116
10 0 59470   5700.000000  0       -912119.013        -92363.369      -6914325.970
10 0 59470   5760.000000  0      -1023738.923        350125.917      -6890955.830
10 0 59470   5820.000000  0      -1127204.143        792091.096      -6838535.642
10 0 59470   5880.000000  0      -1222095.302       1231609.795      -6757290.299
10 0 59470   5940.000000  0      -1308045.559       1666766.678      -6647564.603
10 0 59470   6000.000000  0      -1384741.964       2095661.578      -6509821.900
10 0 59470   6060.000000  0      -1451926.540       2516417.670      -6344642.334
10 0 59470   6120.000000  0      -1509397.133       2927189.660      -6152720.589
10 0 59470   6180.000000  0      -1557007.941       3326171.835      -5934863.088
10 0 59470   6240.000000  0      -1594669.715       3711605.910      -5691984.812
10 0 59470   6300.000000  0      -1622349.716       4081788.801      -5425105.754
10 0 59470   6360.000000  0      -1640071.387       4435080.234      -5135346.878
10 0 59470   6420.000000  0      -1647913.737       4769910.138      -4823925.629
10 0 59470   6480.000000  0      -1646010.429       5084785.759      -4492151.011
10 0 59470   6540.000000  0      -1634548.576       5378298.464      -4141418.258
10 0 59470   6600.000000  0      -1613767.257       5649130.209      -3773203.136
10 0 59470   6660.000000  0      -1583955.735       5896059.635      -3389055.880
10 0 59470   6720.000000  0      -1545451.434       6117967.774      -2990594.827
10 0 59470   6780.000000  0      -1498637.683       6313843.395      -2579499.729
10 0 59470   6840.000000  0      -1443941.191       6482787.908      -2157504.684
10 0 59470   6900.000000  0      -1381829.278       6624019.692      -1726390.771
10 0 59470   6960.000000  0      -1312806.906       6736877.848      -1287978.531
10 0 59470   7020.000000  0      -1237413.521       6820825.517       -844120.290
10 0 59470   7080.000000  0      -1156219.692       6875452.674       -396692.232
10 0 59470   7140.000000  0      -1069823.583       6900478.281         52413.671
99
